NORAD_CAT_ID,OBJECT_NAME,OBJECT_TYPE,EPOCH,MEAN_MOTION,ECCENTRICITY,INCLINATION,RA_OF_ASC_NODE,ARG_OF_PERICENTER,MEAN_ANOMALY,BSTAR,MEAN_MOTION_DOT,MEAN_MOTION_DDOT,TLE_LINE0,TLE_LINE1,TLE_LINE2,SEMIMAJOR_AXIS,PERIOD,APOGEE,PERIGEE,DECAYED
54761.0,STARLINK-5202,PAYLOAD,2023-12-16 14:02:34,15.08844114,0.0001189,53.2181,99.0049,83.3746,276.7382,0.00014853,2.077e-05,0.0,0 STARLINK-5202,1 54761U 22175D   23350.58512405  .00002077  00000-0  14853-3 0  9993,2 54761  53.2181  99.0049 0001189  83.3746 276.7382 15.08844114 57010,6917.868,95.437,540.555,538.91,0.0
54761.0,STARLINK-5202,PAYLOAD,2023-12-17 12:17:59,15.08832916,0.0001362,53.218,94.8452,94.3962,265.7186,6.0902e-05,6.81e-06,0.0,0 STARLINK-5202,1 54761U 22175D   23351.51249578  .00000681  00000-0  60902-4 0  9991,2 54761  53.2180  94.8452 0001362  94.3962 265.7186 15.08832916 54996,6917.902,95.438,540.709,538.825,0.0
54761.0,STARLINK-5202,PAYLOAD,2023-12-17 13:53:22,15.08832967,0.0001491,53.218,94.5479,102.7767,257.3392,6.4851e-05,7.44e-06,0.0,0 STARLINK-5202,1 54761U 22175D   23351.57873654  .00000744  00000-0  64851-4 0  9992,2 54761  53.2180  94.5479 0001491 102.7767 257.3392 15.08832967 57166,6917.902,95.438,540.798,538.735,0.0
54761.0,STARLINK-5202,PAYLOAD,2023-12-18 12:08:45,15.08854647,0.000159,53.2182,90.3879,114.1709,245.9449,-2.9212e-06,-3.35e-06,0.0,0 STARLINK-5202,1 54761U 22175D   23352.50608187 -.00000335  00000-0 -29212-5 0  9994,2 54761  53.2182  90.3879 0001590 114.1709 245.9449 15.08854647 55140,6917.836,95.437,540.801,538.601,0.0
54761.0,STARLINK-5202,PAYLOAD,2023-12-19 11:59:33,15.08837733,0.0001286,53.218,85.9253,93.9495,266.1644,-1.5747e-05,-5.38e-06,0.0,0 STARLINK-5202,1 54761U 22175D   23353.49969430 -.00000538  00000-0 -15747-4 0  9996,2 54761  53.2180  85.9253 0001286  93.9495 266.1644 15.08837733 55297,6917.887,95.438,540.642,538.863,0.0
54761.0,STARLINK-5202,PAYLOAD,2023-12-20 11:50:21,15.08826172,0.0001492,53.2186,81.4665,102.3735,257.7425,-4.0504e-06,-3.52e-06,0.0,0 STARLINK-5202,1 54761U 22175D   23354.49330518 -.00000352  00000-0 -40504-5 0  9990,2 54761  53.2186  81.4665 0001492 102.3735 257.7425 15.08826172 55447,6917.923,95.438,540.82,538.756,0.0
54761.0,STARLINK-5202,PAYLOAD,2023-12-20 13:25:44,15.08844845,0.0001657,53.2189,81.1681,66.1241,293.9925,-0.00013859,-2.493e-05,0.0,0 STARLINK-5202,1 54761U 22175D   23354.55953950 -.00002493  00000-0 -13859-3 0  9997,2 54761  53.2189  81.1681 0001657  66.1241 293.9925 15.08844845 57612,6917.866,95.437,540.877,538.584,0.0
54761.0,STARLINK-5202,PAYLOAD,2023-12-21 13:16:30,15.08843515,0.0001642,53.2185,76.7045,65.6233,294.4931,0.00023614,3.472e-05,0.0,0 STARLINK-5202,1 54761U 22175D   23355.55313401  .00003472  00000-0  23614-3 0  9995,2 54761  53.2185  76.7045 0001642  65.6233 294.4931 15.08843515 57763,6917.87,95.437,540.871,538.599,0.0
54761.0,STARLINK-5202,PAYLOAD,2023-12-22 11:31:55,15.08843696,0.0001406,53.2164,72.5471,71.8084,288.3061,6.2943e-05,7.14e-06,0.0,0 STARLINK-5202,1 54761U 22175D   23356.48050105  .00000714  00000-0  62943-4 0  9992,2 54761  53.2164  72.5471 0001406  71.8084 288.3061 15.08843696 55740,6917.869,95.437,540.707,538.761,0.0
54761.0,STARLINK-5202,PAYLOAD,2023-12-23 14:33:28,15.08854107,0.0001792,53.2199,67.4823,78.2537,281.8656,-1.202e-05,-4.8e-06,0.0,0 STARLINK-5202,1 54761U 22175D   23357.60657526 -.00000480  00000-0 -12020-4 0  9990,2 54761  53.2199  67.4823 0001792  78.2537 281.8656 15.08854107 58070,6917.837,95.437,540.942,538.463,0.0
54761.0,STARLINK-5202,PAYLOAD,2023-12-24 11:13:29,15.08842985,0.0001526,53.2178,63.6236,82.937,277.1796,-1.1573e-05,-4.72e-06,0.0,0 STARLINK-5202,1 54761U 22175D   23358.46770251 -.00000472  00000-0 -11573-4 0  9999,2 54761  53.2178  63.6236 0001526  82.9370 277.1796 15.08842985 56044,6917.871,95.437,540.792,538.681,0.0
54761.0,STARLINK-5202,PAYLOAD,2023-12-25 11:04:16,15.08845373,0.0001579,53.218,59.1663,91.1689,268.9484,2.6359e-05,1.32e-06,0.0,0 STARLINK-5202,1 54761U 22175D   23359.46129969  .00000132  00000-0  26359-4 0  9993,2 54761  53.2180  59.1663 0001579  91.1689 268.9484 15.08845373 58356,6917.864,95.437,540.821,538.637,0.0
54761.0,STARLINK-5202,PAYLOAD,2023-12-26 04:33:31,15.0883734,0.0001535,53.218,55.8885,83.0548,277.0618,-9.3305e-06,-4.36e-06,0.0,0 STARLINK-5202,1 54761U 22175D   23360.18994684 -.00000436  00000-0 -93305-5 0  9993,2 54761  53.2180  55.8885 0001535  83.0548 277.0618 15.08837340 56309,6917.889,95.438,540.815,538.692,0.0
54761.0,STARLINK-5202,PAYLOAD,2023-12-26 09:19:40,15.08836559,0.0001486,53.218,54.9969,103.6111,256.5047,-1.0941e-05,-4.62e-06,0.0,0 STARLINK-5202,1 54761U 22175D   23360.38866741 -.00000462  00000-0 -10941-4 0  9990,2 54761  53.2180  54.9969 0001486 103.6111 256.5047 15.08836559 58493,6917.891,95.438,540.784,538.728,0.0
54761.0,STARLINK-5202,PAYLOAD,2023-12-27 09:10:27,15.08838437,0.000151,53.2198,50.5471,98.7647,261.3516,5.4941e-05,5.86e-06,0.0,0 STARLINK-5202,1 54761U 22175D   23361.38226727  .00000586  00000-0  54941-4 0  9998,2 54761  53.2198  50.5471 0001510  98.7647 261.3516 15.08838437 56487,6917.885,95.438,540.795,538.706,0.0
54761.0,STARLINK-5202,PAYLOAD,2023-12-27 12:21:13,15.08849075,0.0001444,53.2174,49.9382,97.2183,262.8973,6.4271e-05,7.35e-06,0.0,0 STARLINK-5202,1 54761U 22175D   23361.51473926  .00000735  00000-0  64271-4 0  9991,2 54761  53.2174  49.9382 0001444  97.2183 262.8973 15.08849075 58664,6917.853,95.437,540.717,538.719,0.0
54761.0,STARLINK-5202,PAYLOAD,2023-12-28 02:39:42,15.08839537,0.0002121,53.2182,47.272,94.6299,265.4935,5.7781e-05,6.31e-06,0.0,0 STARLINK-5202,1 54761U 22175D   23362.11090715  .00000631  00000-0  57781-4 0  9992,2 54761  53.2182  47.2720 0002121  94.6299 265.4935 15.08839537 56591,6917.882,95.438,541.214,538.28,0.0
54761.0,STARLINK-5202,PAYLOAD,2023-12-28 10:36:38,15.08836807,0.0001619,53.219,45.782,89.0268,271.0909,7.3486e-05,8.82e-06,0.0,0 STARLINK-5202,1 54761U 22175D   23362.44211045  .00000882  00000-0  73486-4 0  9997,2 54761  53.2190  45.7820 0001619  89.0268 271.0909 15.08836807 58806,6917.89,95.438,540.875,538.635,0.0
54761.0,STARLINK-5202,PAYLOAD,2023-12-29 10:27:25,15.08844594,0.0001539,53.2182,41.3206,83.2407,276.8761,-1.0728e-05,-4.59e-06,0.0,0 STARLINK-5202,1 54761U 22175D   23363.43571026 -.00000459  00000-0 -10728-4 0  9997,2 54761  53.2182  41.3206 0001539  83.2407 276.8761 15.08844594 56796,6917.866,95.437,540.796,538.667,0.0
54761.0,STARLINK-5202,PAYLOAD,2023-12-30 08:42:49,15.08843559,0.0001605,53.218,37.1576,79.393,280.7243,7.9856e-05,9.83e-06,0.0,0 STARLINK-5202,1 54761U 22175D   23364.36306784  .00000983  00000-0  79856-4 0  9994,2 54761  53.2180  37.1576 0001605  79.3930 280.7243 15.08843559 59093,6917.87,95.437,540.845,538.624,0.0
54761.0,STARLINK-5202,PAYLOAD,2023-12-31 11:44:22,15.08834641,0.0001646,53.2172,32.102,83.6372,276.4808,9.4565e-05,1.217e-05,0.0,0 STARLINK-5202,1 54761U 22175D   23365.48915351  .00001217  00000-0  94565-4 0  9999,2 54761  53.2172  32.1020 0001646  83.6372 276.4808 15.08834641 57107,6917.897,95.438,540.9,538.623,0.0
54761.0,STARLINK-5202,PAYLOAD,2024-01-01 11:35:09,15.08836727,0.0001657,53.2181,27.6394,100.8995,259.2183,7.4745e-05,9.02e-06,0.0,0 STARLINK-5202,1 54761U 22175D   24001.48275247  .00000902  00000-0  74745-4 0  9998,2 54761  53.2181  27.6394 0001657 100.8995 259.2183 15.08836727 59413,6917.89,95.438,540.902,538.609,0.0
54761.0,STARLINK-5202,PAYLOAD,2024-01-02 05:04:24,15.08838599,0.000169,53.2183,24.368,103.0605,257.0576,6.3608e-05,7.24e-06,0.0,0 STARLINK-5202,1 54761U 22175D   24002.21139198  .00000724  00000-0  63608-4 0  9992,2 54761  53.2183  24.3680 0001690 103.0605 257.0576 15.08838599 57360,6917.885,95.438,540.919,538.581,0.0
54761.0,STARLINK-5202,PAYLOAD,2024-01-02 08:15:10,15.08840209,0.0001668,53.2186,23.7731,100.7166,259.4014,7.6857e-05,9.35e-06,0.0,0 STARLINK-5202,1 54761U 22175D   24002.34387081  .00000935  00000-0  76857-4 0  9996,2 54761  53.2186  23.7731 0001668 100.7166 259.4014 15.08840209 59540,6917.88,95.438,540.899,538.591,0.0
54761.0,STARLINK-5202,PAYLOAD,2024-01-03 04:55:11,15.088372,0.000161,53.2182,19.9097,100.7303,259.387,-9.4087e-06,-4.38e-06,0.0,0 STARLINK-5202,1 54761U 22175D   24003.20499743 -.00000438  00000-0 -94087-5 0  9997,2 54761  53.2182  19.9097 0001610 100.7303 259.3870 15.08837200 57519,6917.889,95.438,540.868,538.64,0.0
54761.0,STARLINK-5202,PAYLOAD,2024-01-04 11:07:31,15.08839661,0.00017,53.219,14.2605,107.5671,252.5507,1.8696e-05,9e-08,0.0,0 STARLINK-5202,1 54761U 22175D   24004.46355737  .00000009  00000-0  18696-4 0  9993,2 54761  53.2190  14.2605 0001700 107.5671 252.5507 15.08839661 57700,6917.881,95.438,540.922,538.57,0.0
54761.0,STARLINK-5202,PAYLOAD,2024-01-05 09:22:55,15.08839624,0.0001464,53.2181,10.096,94.4738,265.6422,6.3446e-05,7.22e-06,0.0,0 STARLINK-5202,1 54761U 22175D   24005.39091870  .00000722  00000-0  63446-4 0  9996,2 54761  53.2181  10.0960 0001464  94.4738 265.6422 15.08839624 60000,6917.882,95.438,540.759,538.734,0.0
54761.0,STARLINK-5202,PAYLOAD,2024-01-06 04:27:33,15.0884025,0.0001475,53.2181,6.528,93.8444,266.2717,4.0068e-05,3.5e-06,0.0,0 STARLINK-5202,1 54761U 22175D   24006.18580033  .00000350  00000-0  40068-4 0  9990,2 54761  53.2181   6.5280 0001475  93.8444 266.2717 15.08840250 57966,6917.88,95.438,540.765,538.724,0.0
54761.0,STARLINK-5202,PAYLOAD,2024-01-06 07:38:19,15.08843334,0.0001518,53.2184,5.9333,90.5097,269.6069,6.6493e-05,7.7e-06,0.0,0 STARLINK-5202,1 54761U 22175D   24006.31827785  .00000770  00000-0  66493-4 0  9999,2 54761  53.2184   5.9333 0001518  90.5097 269.6069 15.08843334 60144,6917.87,95.437,540.785,538.685,0.0
54761.0,STARLINK-5202,PAYLOAD,2024-01-07 09:04:28,15.08851345,0.0001531,53.2185,1.1763,85.9373,274.1794,7.1121e-05,8.44e-06,0.0,0 STARLINK-5202,1 54761U 22175D   24007.37811152  .00000844  00000-0  71121-4 0  9993,2 54761  53.2185   1.1763 0001531  85.9373 274.1794 15.08851345 58144,6917.846,95.437,540.77,538.652,0.0
